{"type": "FeatureCollection", "features": [ {"type": "Feature", "properties": {"norad_id": 36060, "name": "COSMOS 2251 DEB", "group": "cosmos-2251-debris", "lat": -17.979819685842948, "lon": 77.11875333331204, "alt_km": 765.9831782043384, "timestamp": "2025-12-03T10:52:57.853623+00:00", "meta": {"OBJECT_NAME": "COSMOS 2251 DEB", "OBJECT_ID": "1993-036AXX", "EPOCH": "2025-12-03T03:18:13.792032", "MEAN_MOTION": 14.41961785, "ECCENTRICITY": 0.0014943, "INCLINATION": 74.0292, "RA_OF_ASC_NODE": 252.3714, "ARG_OF_PERICENTER": 350.4123, "MEAN_ANOMALY": 9.6745, "EPHEMERIS_TYPE": 0, "CLASSIFICATION_TYPE": "U", "NORAD_CAT_ID": 36060, "ELEMENT_SET_NO": 999, "REV_AT_EPOCH": 84871, "BSTAR": 0.00046786, "MEAN_MOTION_DOT": 1.509e-05, "MEAN_MOTION_DDOT": 0}, "tle": {"line1": "1 36060U 93036AXX 25337.13765963  .00001509  00000+0  46786-3 0  9994", "line2": "2 36060  74.0292 252.3714 0014943 350.4123   9.6745 14.41961785848719"}}, "geometry": {"type": "Point", "coordinates": [77.11875333331204, -17.979819685842948]}}, {"type": "Feature", "properties": {"norad_id": 36061, "name": "COSMOS 2251 DEB", "group": "cosmos-2251-debris", "lat": -59.09677900717526, "lon": -11.835262114950288, "alt_km": 812.2972533593929, "timestamp": "2025-12-03T10:52:57.853633+00:00", "meta": {"OBJECT_NAME": "COSMOS 2251 DEB", "OBJECT_ID": "1993-036AXY", "EPOCH": "2025-12-02T10:03:29.896128", "MEAN_MOTION": 14.33681978, "ECCENTRICITY": 0.00369065, "INCLINATION": 74.0244, "RA_OF_ASC_NODE": 18.6507, "ARG_OF_PERICENTER": 109.9251, "MEAN_ANOMALY": 250.5883, "EPHEMERIS_TYPE": 0, "CLASSIFICATION_TYPE": "U", "NORAD_CAT_ID": 36061, "ELEMENT_SET_NO": 999, "REV_AT_EPOCH": 64956, "BSTAR": 0.00036059137, "MEAN_MOTION_DOT": 9.82e-06, "MEAN_MOTION_DDOT": 0}, "tle": {"line1": "1 36061U 93036AXY 25336.41909602  .00000982  00000+0  36059-3 0  9991", "line2": "2 36061  74.0244  18.6507 0036906 109.9251 250.5883 14.33681978649568"}}, "geometry": {"type": "Point", "coordinates": [-11.835262114950288, -59.09677900717526]}}, {"type": "Feature", "properties": {"norad_id": 36073, "name": "COSMOS 2251 DEB", "group": "cosmos-2251-debris", "lat": -8.248790138734437, "lon": -22.79624428205088, "alt_km": 770.2352026107574, "timestamp": "2025-12-03T10:52:57.853644+00:00", "meta": {"OBJECT_NAME": "COSMOS 2251 DEB", "OBJECT_ID": "1993-036AYL", "EPOCH": "2025-12-02T18:11:25.029312", "MEAN_MOTION": 14.34931351, "ECCENTRICITY": 0.0023452, "INCLINATION": 74.0318, "RA_OF_ASC_NODE": 340.8572, "ARG_OF_PERICENTER": 51.9571, "MEAN_ANOMALY": 308.3693, "EPHEMERIS_TYPE": 0, "CLASSIFICATION_TYPE": "U", "NORAD_CAT_ID": 36073, "ELEMENT_SET_NO": 999, "REV_AT_EPOCH": 70064, "BSTAR": 0.00029028, "MEAN_MOTION_DOT": 8.02e-06, "MEAN_MOTION_DDOT": 0}, "tle": {"line1": "1 36073U 93036AYL 25336.75792858  .00000802  00000+0  29028-3 0  9993", "line2": "2 36073  74.0318 340.8572 0023452  51.9571 308.3693 14.34931351700640"}}, "geometry": {"type": "Point", "coordinates": [-22.79624428205088, -8.248790138734437]}}, {"type": "Feature", "properties": {"norad_id": 36074, "name": "COSMOS 2251 DEB", "group": "cosmos-2251-debris", "lat": -16.347524960379882, "lon": -177.36877454784852, "alt_km": 757.9532995956606, "timestamp": "2025-12-03T10:52:57.853654+00:00", "meta": {"OBJECT_NAME": "COSMOS 2251 DEB", "OBJECT_ID": "1993-036AYM", "EPOCH": "2025-11-30T08:47:56.269536", "MEAN_MOTION": 14.43612377, "ECCENTRICITY": 0.00417412, "INCLINATION": 73.9972, "RA_OF_ASC_NODE": 3.551, "ARG_OF_PERICENTER": 99.6494, "MEAN_ANOMALY": 260.9382, "EPHEMERIS_TYPE": 0, "CLASSIFICATION_TYPE": "U", "NORAD_CAT_ID": 36074, "ELEMENT_SET_NO": 999, "REV_AT_EPOCH": 85731, "BSTAR": 0.00086426668, "MEAN_MOTION_DOT": 2.936e-05, "MEAN_MOTION_DDOT": 0}, "tle": {"line1": "1 36074U 93036AYM 25334.36662349  .00002936  00000+0  86427-3 0  9996", "line2": "2 36074  73.9972   3.5510 0041741  99.6494 260.9382 14.43612377857313"}}, "geometry": {"type": "Point", "coordinates": [-177.36877454784852, -16.347524960379882]}}, {"type": "Feature", "properties": {"norad_id": 36366, "name": "COSMOS 2251 DEB", "group": "cosmos-2251-debris", "lat": 57.716370839965656, "lon": 83.12759493319764, "alt_km": 835.6780190152776, "timestamp": "2025-12-03T10:52:57.853665+00:00", "meta": {"OBJECT_NAME": "COSMOS 2251 DEB", "OBJECT_ID": "1993-036AYT", "EPOCH": "2025-12-02T05:51:07.218720", "MEAN_MOTION": 14.33192884, "ECCENTRICITY": 0.0091167, "INCLINATION": 74.0653, "RA_OF_ASC_NODE": 292.2194, "ARG_OF_PERICENTER": 322.5756, "MEAN_ANOMALY": 36.9067, "EPHEMERIS_TYPE": 0, "CLASSIFICATION_TYPE": "U", "NORAD_CAT_ID": 36366, "ELEMENT_SET_NO": 999, "REV_AT_EPOCH": 86138, "BSTAR": 0.0027816, "MEAN_MOTION_DOT": 7.987e-05, "MEAN_MOTION_DDOT": 0}, "tle": {"line1": "1 36366U 93036AYT 25336.24383355  .00007987  00000+0  27816-2 0  9993", "line2": "2 36366  74.0653 292.2194 0091167 322.5756  36.9067 14.33192884861384"}}, "geometry": {"type": "Point", "coordinates": [83.12759493319764, 57.716370839965656]}}, {"type": "Feature", "properties": {"norad_id": 36367, "name": "COSMOS 2251 DEB", "group": "cosmos-2251-debris", "lat": -69.42052066743037, "lon": -162.3004616951246, "alt_km": 796.6292314036427, "timestamp": "2025-12-03T10:52:57.853675+00:00", "meta": {"OBJECT_NAME": "COSMOS 2251 DEB", "OBJECT_ID": "1993-036AYU", "EPOCH": "2025-12-01T12:28:20.175744", "MEAN_MOTION": 13.86234419, "ECCENTRICITY": 0.02628434, "INCLINATION": 74.101, "RA_OF_ASC_NODE": 250.3439, "ARG_OF_PERICENTER": 325.6692, "MEAN_ANOMALY": 32.7682, "EPHEMERIS_TYPE": 0, "CLASSIFICATION_TYPE": "U", "NORAD_CAT_ID": 36367, "ELEMENT_SET_NO": 999, "REV_AT_EPOCH": 57374, "BSTAR": 0.0014810929, "MEAN_MOTION_DOT": 2.22e-05, "MEAN_MOTION_DDOT": 0}, "tle": {"line1": "1 36367U 93036AYU 25335.51967796  .00002220  00000+0  14811-2 0  9996", "line2": "2 36367  74.1010 250.3439 0262843 325.6692  32.7682 13.86234419573749"}}, "geometry": {"type": "Point", "coordinates": [-162.3004616951246, -69.42052066743037]}}, {"type": "Feature", "properties": {"norad_id": 36369, "name": "COSMOS 2251 DEB", "group": "cosmos-2251-debris", "lat": 51.89807353075428, "lon": 110.25510526514091, "alt_km": 649.3120178239915, "timestamp": "2025-12-03T10:52:57.853685+00:00", "meta": {"OBJECT_NAME": "COSMOS 2251 DEB", "OBJECT_ID": "1993-036AYW", "EPOCH": "2025-12-03T00:51:19.677024", "MEAN_MOTION": 14.73251105, "ECCENTRICITY": 0.0012391, "INCLINATION": 74.0302, "RA_OF_ASC_NODE": 89.6499, "ARG_OF_PERICENTER": 171.9331, "MEAN_ANOMALY": 188.2043, "EPHEMERIS_TYPE": 0, "CLASSIFICATION_TYPE": "U", "NORAD_CAT_ID": 36369, "ELEMENT_SET_NO": 999, "REV_AT_EPOCH": 85779, "BSTAR": 0.0024127, "MEAN_MOTION_DOT": 0.00015612, "MEAN_MOTION_DDOT": 0}, "tle": {"line1": "1 36369U 93036AYW 25337.03564441  .00015612  00000+0  24127-2 0  9997", "line2": "2 36369  74.0302  89.6499 0012391 171.9331 188.2043 14.73251105857792"}}, "geometry": {"type": "Point", "coordinates": [110.25510526514091, 51.89807353075428]}}, {"type": "Feature", "properties": {"norad_id": 36371, "name": "COSMOS 2251 DEB", "group": "cosmos-2251-debris", "lat": 60.17126561740178, "lon": -150.42383220874842, "alt_km": 660.9063631221015, "timestamp": "2025-12-03T10:52:57.853697+00:00", "meta": {"OBJECT_NAME": "COSMOS 2251 DEB", "OBJECT_ID": "1993-036AYY", "EPOCH": "2025-11-30T20:32:02.763456", "MEAN_MOTION": 14.70225787, "ECCENTRICITY": 0.00108974, "INCLINATION": 74.0137, "RA_OF_ASC_NODE": 184.6205, "ARG_OF_PERICENTER": 224.8098, "MEAN_ANOMALY": 135.2194, "EPHEMERIS_TYPE": 0, "CLASSIFICATION_TYPE": "U", "NORAD_CAT_ID": 36371, "ELEMENT_SET_NO": 999, "REV_AT_EPOCH": 71270, "BSTAR": 0.0018017068, "MEAN_MOTION_DOT": 0.00010857, "MEAN_MOTION_DDOT": 0}, "tle": {"line1": "1 36371U 93036AYY 25334.85558754  .00010857  00000+0  18017-2 0  9994", "line2": "2 36371  74.0137 184.6205 0010897 224.8098 135.2194 14.70225787712703"}}, "geometry": {"type": "Point", "coordinates": [-150.42383220874842, 60.17126561740178]}}, {"type": "Feature", "properties": {"norad_id": 36379, "name": "COSMOS 2251 DEB", "group": "cosmos-2251-debris", "lat": -60.31387018557735, "lon": -66.29306121235066, "alt_km": 808.2950463276065, "timestamp": "2025-12-03T10:52:57.853708+00:00", "meta": {"OBJECT_NAME": "COSMOS 2251 DEB", "OBJECT_ID": "1993-036AZG", "EPOCH": "2025-12-02T08:45:01.281024", "MEAN_MOTION": 14.36049037, "ECCENTRICITY": 0.00444977, "INCLINATION": 74.0124, "RA_OF_ASC_NODE": 325.9012, "ARG_OF_PERICENTER": 97.8988, "MEAN_ANOMALY": 330.8208, "EPHEMERIS_TYPE": 0, "CLASSIFICATION_TYPE": "U", "NORAD_CAT_ID": 36379, "ELEMENT_SET_NO": 999, "REV_AT_EPOCH": 64679, "BSTAR": 0.0003527666, "MEAN_MOTION_DOT": 1.012e-05, "MEAN_MOTION_DDOT": 0}, "tle": {"line1": "1 36379U 93036AZG 25336.36459816  .00001012  00000+0  35277-3 0  9990", "line2": "2 36379  74.0124 325.9012 0044497  97.8988 330.8208 14.36049037646790"}}, "geometry": {"type": "Point", "coordinates": [-66.29306121235066, -60.31387018557735]}}, {"type": "Feature", "properties": {"norad_id": 36385, "name": "COSMOS 2251 DEB", "group": "cosmos-2251-debris", "lat": 61.840740590947156, "lon": -39.79766618018012, "alt_km": 702.1870465746733, "timestamp": "2025-12-03T10:52:57.853718+00:00", "meta": {"OBJECT_NAME": "COSMOS 2251 DEB", "OBJECT_ID": "1993-036AZN", "EPOCH": "2025-12-02T19:41:49.805376", "MEAN_MOTION": 14.72268382, "ECCENTRICITY": 0.0141154, "INCLINATION": 73.969, "RA_OF_ASC_NODE": 173.928, "ARG_OF_PERICENTER": 350.6385, "MEAN_ANOMALY": 9.2157, "EPHEMERIS_TYPE": 0, "CLASSIFICATION_TYPE": "U", "NORAD_CAT_ID": 36385, "ELEMENT_SET_NO": 999, "REV_AT_EPOCH": 84956, "BSTAR": 0.0016407, "MEAN_MOTION_DOT": 0.00012116, "MEAN_MOTION_DDOT": 0}, "tle": {"line1": "1 36385U 93036AZN 25336.82071534  .00012116  00000+0  16407-2 0  9995", "line2": "2 36385  73.9690 173.9280 0141154 350.6385   9.2157 14.72268382849566"}}, "geometry": {"type": "Point", "coordinates": [-39.79766618018012, 61.840740590947156]}}]}